# From MPEC 2021-N06
137P/Shoemaker-Levy,e,4.8544,233.0133,141.0534,4.520641,0.1025425,0.57365189,105.4197,10/07.0/2021,2000,g 11.0,4.0
# From MPEC 2016-U66
138P/Shoemaker-Levy,e,10.0907,309.3269,95.5376,3.621693,0.1430002,0.53071116,126.9806,10/07.0/2021,2000,g 15.0,6.0
# From MPEC 2020-HN5
139P/Vaisala-Oterma,e,2.3344,242.1628,165.7112,4.521621,0.1025092,0.24704032,143.2192,10/07.0/2021,2000,g  9.5,4.0
# From MPEC 2015-E14
140P/Bowell-Skiff,e,3.8368,343.2620,172.8465,6.426981,0.0604914,0.69175186,136.4235,10/07.0/2021,2000,g 11.5,6.0
# From MPEC 2021-AJ0
141P/Machholz,e,13.9456,241.8363,153.5539,3.057346,0.1843687,0.73579856,54.3333,10/07.0/2021,2000,g 14.7,4.0
# From MPEC 2021-TD0
142P/Ge-Wang,e,12.2510,175.9323,173.9522,4.999697,0.0881634,0.49737643,12.9943,10/07.0/2021,2000,g  8.5,6.0
# From MPEC 2021-TD0
143P/Kowal-Mrkos,e,4.6992,245.1965,320.3680,4.280834,0.1112786,0.41096035,139.1986,10/07.0/2021,2000,g 13.5,2.0
# From MPC104795
144P/Kushida,e,3.9359,243.1908,216.3082,3.821537,0.1319310,0.63575475,249.0910,10/07.0/2021,2000,g  8.5,8.0
# From MPC108598
145P/Shoemaker-Levy,e,11.2751,26.7894,10.2394,4.137938,0.1170922,0.54167142,175.2092,10/07.0/2021,2000,g 13.5,4.0
# From MPC100284
146P/Shoemaker-LINEAR,e,23.1016,53.3902,316.9608,4.031711,0.1217503,0.64718242,234.1736,10/07.0/2021,2000,g 15.0,4.0
# From MPC 75720
147P/Kushida-Muramatsu,e,2.3238,92.7729,349.1232,4.012804,0.1226118,0.22576864,262.8672,10/07.0/2021,2000,g 14.0,4.0
# From MPEC 2021-TD0
148P/Anderson-LINEAR,e,3.6579,89.2214,7.9751,3.619823,0.1431110,0.54993284,324.2782,10/07.0/2021,2000,g 16.0,2.0
# From MPC 75720
149P/Mueller,e,35.4086,144.4096,31.9552,4.131354,0.1173723,0.32857490,132.8580,10/07.0/2021,2000,g  8.0,8.0
# From MPEC 2021-TD0
150P/LONEOS,e,18.5056,272.3530,245.5785,3.879329,0.1289939,0.54737748,245.3994,10/07.0/2021,2000,g 13.5,4.0
# From MPEC 2015-Q71
151P/Helin,e,4.7288,143.1586,216.0553,5.763231,0.0712369,0.57365518,155.8427,10/07.0/2021,2000,g 10.0,6.0
# From MPEC 2021-F20
152P/Helin-Lawrence,e,9.8802,91.8593,163.9315,4.477064,0.1040433,0.30870943,349.7386,10/07.0/2021,2000,g 12.6,4.0
# From MPC 46101
153P/Ikeya-Zhang,e,27.8709,93.2033,35.0350,50.57726,0.0027401,0.98963055,0.0000,03/04.8303/2002,2000,g  9.0,4.0
# From MPC 87068
154P/Brewington,e,17.6332,343.0413,47.8432,4.802345,0.0936535,0.67581471,268.1358,10/07.0/2021,2000,g  2.5,12.0
# From MPEC 2021-F20
155P/Shoemaker,e,6.3968,97.1893,14.6074,6.575840,0.0584490,0.72619310,40.4542,10/07.0/2021,2000,g 13.8,4.0
# From MPEC 2021-O56
156P/Russell-LINEAR,e,17.2631,35.3584,0.4429,3.461181,0.1530621,0.61489734,49.4538,10/07.0/2021,2000,g 15.5,2.0
# From MPEC 2021-S45
157P/Tritton,e,12.4364,287.6283,154.9377,3.550021,0.1473526,0.55728517,310.2514,10/07.0/2021,2000,g 10.0,4.0
# From MPEC 2021-TD0
158P/Kowal-LINEAR,e,7.9997,135.5172,173.0672,5.042695,0.0870382,0.04829129,12.1150,10/07.0/2021,2000,g  9.0,4.0
# From MPEC 2021-N06
159P/LONEOS,e,23.4686,54.9724,4.5598,5.853527,0.0695949,0.38189584,85.8761,10/07.0/2021,2000,g 10.0,4.0
# From MPEC 2021-J28
160P/LINEAR,e,15.6174,333.3586,12.7211,3.774862,0.1343855,0.52633241,90.6456,10/07.0/2021,2000,g 15.5,2.0
# From MPC 75721
161P/Hartley-IRAS,e,95.7923,1.5613,46.9630,7.723559,0.0459175,0.83489221,273.7308,10/07.0/2021,2000,g  8.5,6.0
# From MPEC 2021-S45
162P/SidingSpring,e,27.5554,30.9022,357.1505,3.091333,0.1813366,0.58299083,54.9729,10/07.0/2021,2000,g 12.0,4.0
# From MPEC 2021-S45
163P/NEAT,e,12.7092,102.0827,349.5927,3.766994,0.1348067,0.45193671,107.0338,10/07.0/2021,2000,g 14.5,4.0
# From MPEC 2021-F20
164P/Christensen,e,16.2580,88.2850,325.8333,3.656265,0.1409767,0.54023803,172.6213,10/07.0/2021,2000,g 11.0,4.0
# From MPC 75721
165P/LINEAR,e,15.8952,0.8539,125.9688,17.87225,0.0130447,0.61510044,101.9613,10/07.0/2021,2000,g 11.5,2.0
# From MPC 75722
166P/NEAT,e,15.3719,64.4259,321.4734,13.81702,0.0191903,0.38379973,135.8806,10/07.0/2021,2000,g  5.5,4.0
# From MPC 75722
167P/CINEOS,e,19.1180,295.6707,344.5935,16.22269,0.0150841,0.27174571,112.4170,10/07.0/2021,2000,g  9.5,2.0
# From MPC102101
168P/Hergenrother,e,21.6231,355.4519,15.0003,3.582279,0.1453667,0.62102223,115.3555,10/07.0/2021,2000,g 15.5,4.0
# From MPEC 2021-N06
169P/NEAT,e,11.2989,176.1081,218.0479,2.601354,0.2349118,0.76824730,295.2352,10/07.0/2021,2000,g 16.0,2.0
# From MPEC 2021-O56
170P/Christensen,e,10.1250,142.9226,225.6314,4.199251,0.1145371,0.30387672,295.7259,10/07.0/2021,2000,g 12.0,4.0
# From MPC102102
171P/Spahr,e,21.9355,101.6934,347.0678,3.555063,0.1470392,0.50163944,146.7102,10/07.0/2021,2000,g 13.5,4.0
# From MPEC 2021-BE3
172P/Yeung,e,11.2273,30.8878,209.4081,4.213735,0.1139471,0.20524945,190.2631,10/07.0/2021,2000,g 13.0,4.0
# From MPEC 2021-S45
173P/Mueller,e,16.4937,100.4019,29.1938,5.705603,0.0723189,0.26089536,354.8775,10/07.0/2021,2000,g  7.5,4.0
# From MPC 92985
174P/Echeclus,e,4.3435,173.2090,163.1521,10.72376,0.0280662,0.45744615,66.1333,10/07.0/2021,2000,g  9.4,2.0
# From MPC114608
175P/Hergenrother,e,5.9868,123.1789,58.0914,3.469628,0.1525035,0.43558336,111.2597,10/07.0/2021,2000,g 14.0,4.0
# From MPC 89015
176P/LINEAR,e,0.2347,345.9459,34.8586,3.195144,0.1725712,0.19311022,288.8982,10/07.0/2021,2000,g 15.1,2.0
# From MPEC 2020-L06
177P/Barnard,e,31.2527,272.1948,60.2969,24.43630,0.0081593,0.95533441,44.9744,10/07.0/2021,2000,g 15.0,4.0
# From MPEC 2021-F20
178P/Hug-Bell,e,11.0883,102.8698,297.7937,3.632125,0.1423845,0.48213400,63.6909,10/07.0/2021,2000,g 14.6,4.0
# From MPEC 2021-TD0
179P/Jedicke,e,19.8979,115.5171,296.8406,5.933987,0.0681843,0.30601311,343.9936,10/07.0/2021,2000,g  2.5,8.0
# From MPC100284
180P/NEAT,e,16.8650,84.5698,94.7738,3.863734,0.1297757,0.35301630,276.4744,10/07.0/2021,2000,g 11.0,4.0
# From MPC 89012
181P/Shoemaker-Levy,e,17.4855,35.4067,336.2319,3.874334,0.1292434,0.70064169,347.8831,10/07.0/2021,2000,g 11.5,4.0
# From MPEC 2014-J10
182P/LONEOS,e,16.2251,72.4687,54.2068,2.951338,0.1943908,0.66318998,317.7704,10/07.0/2021,2000,g 18.0,4.0
# From MPEC 2021-S45
183P/Korlevic-Juric,e,18.8592,4.3102,167.1915,4.554249,0.1014096,0.13340091,142.2791,10/07.0/2021,2000,g 12.5,2.0
# From MPEC 2020-W26
184P/Lovas,e,4.5733,173.2479,186.4721,3.794447,0.1333464,0.55103804,46.1053,10/07.0/2021,2000,g 13.5,4.0
# From MPC109593
185P/Petriew,e,14.0094,214.1021,181.8739,3.098703,0.1806900,0.69938549,243.6293,10/07.0/2021,2000,g 15.0,4.0
# From MPEC 2021-S45
186P/Garradd,e,28.8549,326.6316,274.3266,4.906292,0.0906931,0.12170867,87.8671,10/07.0/2021,2000,g  7.5,4.0
# From MPEC 2020-SI8
187P/LINEAR,e,13.6342,109.9147,131.7693,4.568771,0.1009264,0.15203940,125.3004,10/07.0/2021,2000,g  9.0,4.0
# From MPC106349
188P/LINEAR-Mueller,e,10.5256,358.9649,26.5639,4.373430,0.1077633,0.41610595,182.3010,10/07.0/2021,2000,g 11.5,4.0
# From MPC106349
189P/NEAT,e,20.0689,281.7265,16.3038,2.946220,0.1948975,0.58874772,296.4991,10/07.0/2021,2000,g 19.0,4.0
# From MPEC 2020-K19
190P/Mueller,e,2.1743,335.5778,50.2882,4.233411,0.1131536,0.52163161,227.1229,10/07.0/2021,2000,g 13.0,4.0
# From MPEC 2021-TD0
191P/McNaught,e,8.8427,98.2331,284.0229,3.634815,0.1422266,0.38586801,28.5651,10/07.0/2021,2000,g 13.0,4.0
# From MPC 75724
192P/Shoemaker-Levy,e,24.5653,51.6166,312.9840,6.475089,0.0598185,0.77333320,302.5517,10/07.0/2021,2000,g 15.0,4.0
# From MPEC 2021-TD0
193P/LINEAR-NEAT,e,10.6885,335.1743,8.0984,3.578714,0.1455840,0.39418601,6.2223,10/07.0/2021,2000,g 14.0,4.0
# From MPC 98566
194P/LINEAR,e,11.7366,350.0254,131.4567,4.003030,0.1230611,0.58370820,255.9155,10/07.0/2021,2000,g 16.0,4.0
# From MPEC 2021-S45
195P/Hill,e,36.3329,243.1238,249.2778,6.504439,0.0594141,0.31346920,277.4187,10/07.0/2021,2000,g  8.5,4.0
# From MPC 92985
196P/Tichy,e,19.2924,24.1514,12.1782,3.803552,0.1328679,0.42858990,308.4821,10/07.0/2021,2000,g 13.5,4.0
# From MPC 94676
197P/LINEAR,e,25.5316,66.3778,188.7511,2.867788,0.2029474,0.62951199,273.4050,10/07.0/2021,2000,g 16.5,2.0
# From NK 1596
198P/ODAS,e,1.3387,358.2540,69.1792,3.598264,0.1443991,0.44354876,148.4624,10/07.0/2021,2000,g  9.0,4.0
# From MPC 75725
199P/Shoemaker,e,24.9319,92.3741,191.6968,5.891685,0.0689199,0.50594272,313.8236,10/07.0/2021,2000,g 10.0,4.0
# From MPEC 2021-F20
200P/Larsen,e,12.0994,234.7824,134.1269,4.942098,0.0897092,0.33265220,71.8250,10/07.0/2021,2000,g  9.0,4.0
# From MPC 93588
201P/LONEOS,e,5.7390,19.7471,41.5457,3.354042,0.1604543,0.63704894,21.3922,10/07.0/2021,2000,g 14.0,4.0
# From MPEC 2021-N06
202P/Scotti,e,2.0916,177.8556,277.1323,4.067615,0.1201419,0.26465134,244.7051,10/07.0/2021,2000,g 13.5,4.0
# From MPEC 2021-S45
203P/Korlevic,e,2.9728,290.3385,154.7918,4.670614,0.0976435,0.31521441,56.7636,10/07.0/2021,2000,g 14.5,2.0
# From MPC 98566
204P/LINEAR-NEAT,e,6.5981,108.5602,356.4082,3.588606,0.1449825,0.48818879,301.2095,10/07.0/2021,2000,g 14.0,4.0
# From MPC 98566
205P/Giacobini,e,15.3045,179.6050,154.2091,3.542837,0.1478010,0.56811969,345.4525,10/07.0/2021,2000,g 13.0,4.0
# From MPC 75725
206P/Barnard-Boattini,e,33.6333,202.3426,189.4827,3.488096,0.1512939,0.55139006,32.7531,10/07.0/2021,2000,g 19.0,4.0
# From MPC 75725
207P/NEAT,e,10.1873,198.3278,273.0052,3.871890,0.1293658,0.75909068,250.4446,10/07.0/2021,2000,g 16.0,4.0
# From MPEC 2020-W26
208P/McMillan,e,4.4113,36.3425,310.4791,4.044753,0.1211619,0.37397898,232.6232,10/07.0/2021,2000,g 12.5,4.0
# From MPC 90771
209P/LINEAR,e,21.2556,62.7739,152.4593,2.959974,0.1935406,0.67302852,164.0390,10/07.0/2021,2000,g 17.0,2.0
# From MPC105242
210P/Christensen,e,10.2637,93.8276,345.8939,3.163976,0.1751274,0.83324907,95.8141,10/07.0/2021,2000,g 13.5,4.0
# From MPC 96868
211P/Hill,e,18.9212,117.1320,4.2676,3.545980,0.1476045,0.34347197,306.4792,10/07.0/2021,2000,g 12.5,4.0
# From MPEC 2021-F20
212P/NEAT,e,22.2236,98.2689,14.0799,3.889891,0.1284689,0.58790834,240.3574,10/07.0/2021,2000,g 17.0,2.0
# From MPC114608
213P/Van Ness,e,10.3822,311.2984,5.6625,3.347446,0.1609288,0.40827696,236.8631,10/07.0/2021,2000,g 10.5,4.0
# From MPC 92986
